start=new Date('2022-11-15T00:00:00.000Z').valueOf();
sats=[{"MEAN_ANOMALY":"211.6909","EPOCH":"2022-11-14T22:00:00.999936","TLE_LINE1":"1 53922U 22119AN  22318.91667824 -.00306592  00000-0 -22460-2 0  9998","MEAN_MOTION_DDOT":"0.0000000000000","MEAN_ELEMENT_THEORY":"SGP4","RCS_SIZE":"LARGE","LAUNCH_DATE":"2022-09-24","RA_OF_ASC_NODE":"0.8144","SITE":"AFETR","SEMIMAJOR_AXIS":"6727.509","OBJECT_ID":"2022-119AN","FILE":"3655170","INCLINATION":"53.2157","OBJECT_NAME":"STARLINK-5002","REV_AT_EPOCH":"845","ELEMENT_SET_NO":"999","CENTER_NAME":"EARTH","ECCENTRICITY":"0.00037050","ARG_OF_PERICENTER":"7.5911","GP_ID":"217745102","PERIOD":"91.525","PERIAPSIS":"346.881","APOAPSIS":"351.866","MEAN_MOTION_DOT":"-0.00306592","REF_FRAME":"TEME","NORAD_CAT_ID":"53922","CLASSIFICATION_TYPE":"U","BSTAR":"-0.00224600000000","TLE_LINE2":"2 53922  53.2157   0.8144 0003705   7.5911 211.6909 15.73335520  8450","EPHEMERIS_TYPE":"0","MEAN_MOTION":"15.73335520","TIME_SYSTEM":"UTC","DECAY_DATE":null,"OBJECT_TYPE":"PAYLOAD","COUNTRY_CODE":"US"},{"APOAPSIS":"351.344","MEAN_MOTION_DOT":"-0.00730809","CLASSIFICATION_TYPE":"U","NORAD_CAT_ID":"53923","REF_FRAME":"TEME","BSTAR":"-0.00559040000000","TLE_LINE2":"2 53923  53.2167   0.8167 0003665 352.8183 225.3867 15.73509277  8456","EPHEMERIS_TYPE":"0","MEAN_MOTION":"15.73509277","TIME_SYSTEM":"UTC","DECAY_DATE":null,"COUNTRY_CODE":"US","OBJECT_TYPE":"PAYLOAD","MEAN_ANOMALY":"225.3867","TLE_LINE1":"1 53923U 22119AP  22318.91667824 -.00730809  00000-0 -55904-2 0  9990","EPOCH":"2022-11-14T22:00:00.999936","MEAN_MOTION_DDOT":"0.0000000000000","RCS_SIZE":"LARGE","MEAN_ELEMENT_THEORY":"SGP4","LAUNCH_DATE":"2022-09-24","SITE":"AFETR","RA_OF_ASC_NODE":"0.8167","SEMIMAJOR_AXIS":"6727.014","OBJECT_ID":"2022-119AP","FILE":"3655170","INCLINATION":"53.2167","OBJECT_NAME":"STARLINK-5004","ELEMENT_SET_NO":"999","ECCENTRICITY":"0.00036650","CENTER_NAME":"EARTH","REV_AT_EPOCH":"845","ARG_OF_PERICENTER":"352.8183","GP_ID":"217744633","PERIOD":"91.515","PERIAPSIS":"346.413"},{"PERIAPSIS":"346.635","PERIOD":"91.525","GP_ID":"217745503","ARG_OF_PERICENTER":"1.3384","REV_AT_EPOCH":"845","ELEMENT_SET_NO":"999","ECCENTRICITY":"0.00040190","CENTER_NAME":"EARTH","OBJECT_NAME":"STARLINK-5001","FILE":"3655205","INCLINATION":"53.2166","SEMIMAJOR_AXIS":"6727.473","OBJECT_ID":"2022-119AQ","RA_OF_ASC_NODE":"0.8124","SITE":"AFETR","LAUNCH_DATE":"2022-09-24","MEAN_ELEMENT_THEORY":"SGP4","RCS_SIZE":"LARGE","MEAN_MOTION_DDOT":"0.0000000000000","EPOCH":"2022-11-14T22:00:00.999936","TLE_LINE1":"1 53924U 22119AQ  22318.91667824 -.00333983  00000-0 -24533-2 0  9997","MEAN_ANOMALY":"219.7360","OBJECT_TYPE":"PAYLOAD","COUNTRY_CODE":"US","DECAY_DATE":null,"TIME_SYSTEM":"UTC","MEAN_MOTION":"15.73347954","EPHEMERIS_TYPE":"0","TLE_LINE2":"2 53924  53.2166   0.8124 0004019   1.3384 219.7360 15.73347954  8459","BSTAR":"-0.00245330000000","REF_FRAME":"TEME","CLASSIFICATION_TYPE":"U","NORAD_CAT_ID":"53924","MEAN_MOTION_DOT":"-0.00333983","APOAPSIS":"352.042"},{"LAUNCH_DATE":"2022-09-24","SITE":"AFETR","RA_OF_ASC_NODE":"0.8348","OBJECT_ID":"2022-119AR","SEMIMAJOR_AXIS":"6727.862","MEAN_ANOMALY":"212.4368","TLE_LINE1":"1 53925U 22119AR  22318.91667824 -.00038124  00000-0 -26814-3 0  9992","EPOCH":"2022-11-14T22:00:00.999936","MEAN_MOTION_DDOT":"0.0000000000000","RCS_SIZE":"LARGE","MEAN_ELEMENT_THEORY":"SGP4","GP_ID":"217747615","PERIOD":"91.533","PERIAPSIS":"346.980","INCLINATION":"53.2159","FILE":"3655284","OBJECT_NAME":"STARLINK-5011","ELEMENT_SET_NO":"999","ECCENTRICITY":"0.00040830","CENTER_NAME":"EARTH","REV_AT_EPOCH":"845","ARG_OF_PERICENTER":"4.4138","REF_FRAME":"TEME","NORAD_CAT_ID":"53925","CLASSIFICATION_TYPE":"U","BSTAR":"-0.00026814000000","APOAPSIS":"352.474","MEAN_MOTION_DOT":"-0.00038124","MEAN_MOTION":"15.73211692","DECAY_DATE":null,"TIME_SYSTEM":"UTC","COUNTRY_CODE":"US","OBJECT_TYPE":"PAYLOAD","TLE_LINE2":"2 53925  53.2159   0.8348 0004083   4.4138 212.4368 15.73211692  8459","EPHEMERIS_TYPE":"0"},{"APOAPSIS":"351.672","MEAN_MOTION_DOT":"-0.00359854","CLASSIFICATION_TYPE":"U","NORAD_CAT_ID":"53926","REF_FRAME":"TEME","BSTAR":"-0.00264960000000","TLE_LINE2":"2 53926  53.2166   0.8108 0003562   5.8779 215.7772 15.73370005  1305","EPHEMERIS_TYPE":"0","MEAN_MOTION":"15.73370005","COUNTRY_CODE":"US","OBJECT_TYPE":"PAYLOAD","TIME_SYSTEM":"UTC","DECAY_DATE":null,"TLE_LINE1":"1 53926U 22119AS  22318.91667824 -.00359854  00000-0 -26496-2 0  9994","EPOCH":"2022-11-14T22:00:00.999936","MEAN_ANOMALY":"215.7772","RCS_SIZE":"LARGE","MEAN_ELEMENT_THEORY":"SGP4","MEAN_MOTION_DDOT":"0.0000000000000","SITE":"AFETR","RA_OF_ASC_NODE":"0.8108","LAUNCH_DATE":"2022-09-24","OBJECT_ID":"2022-119AS","SEMIMAJOR_AXIS":"6727.411","OBJECT_NAME":"STARLINK-5014","INCLINATION":"53.2166","FILE":"3656014","ARG_OF_PERICENTER":"5.8779","ELEMENT_SET_NO":"999","ECCENTRICITY":"0.00035620","CENTER_NAME":"EARTH","REV_AT_EPOCH":"130","PERIOD":"91.523","GP_ID":"217788495","PERIAPSIS":"346.879"},{"EPHEMERIS_TYPE":"0","TLE_LINE2":"2 53927  53.2165   0.8124 0003826   2.1801 218.2985 15.73320085  8452","COUNTRY_CODE":"US","OBJECT_TYPE":"PAYLOAD","TIME_SYSTEM":"UTC","DECAY_DATE":null,"MEAN_MOTION":"15.73320085","MEAN_MOTION_DOT":"-0.00284108","APOAPSIS":"351.992","BSTAR":"-0.00207680000000","NORAD_CAT_ID":"53927","REF_FRAME":"TEME","CLASSIFICATION_TYPE":"U","ARG_OF_PERICENTER":"2.1801","ELEMENT_SET_NO":"999","ECCENTRICITY":"0.00038260","CENTER_NAME":"EARTH","REV_AT_EPOCH":"845","OBJECT_NAME":"STARLINK-5008","INCLINATION":"53.2165","FILE":"3655206","PERIAPSIS":"346.844","PERIOD":"91.526","GP_ID":"217746021","RCS_SIZE":"LARGE","MEAN_ELEMENT_THEORY":"SGP4","MEAN_MOTION_DDOT":"0.0000000000000","TLE_LINE1":"1 53927U 22119AT  22318.91667824 -.00284108  00000-0 -20768-2 0  9990","EPOCH":"2022-11-14T22:00:00.999936","MEAN_ANOMALY":"218.2985","SEMIMAJOR_AXIS":"6727.553","OBJECT_ID":"2022-119AT","SITE":"AFETR","RA_OF_ASC_NODE":"0.8124","LAUNCH_DATE":"2022-09-24"},{"SEMIMAJOR_AXIS":"6727.780","OBJECT_ID":"2022-119AU","SITE":"AFETR","RA_OF_ASC_NODE":"0.8194","LAUNCH_DATE":"2022-09-24","MEAN_ELEMENT_THEORY":"SGP4","RCS_SIZE":"LARGE","MEAN_MOTION_DDOT":"0.0000000000000","EPOCH":"2022-11-14T22:00:00.999936","TLE_LINE1":"1 53928U 22119AU  22318.91667824 -.00028336  00000-0 -19770-3 0  9992","MEAN_ANOMALY":"208.2756","PERIAPSIS":"347.113","PERIOD":"91.531","GP_ID":"217745520","ARG_OF_PERICENTER":"13.9328","REV_AT_EPOCH":"845","ELEMENT_SET_NO":"999","ECCENTRICITY":"0.00037640","CENTER_NAME":"EARTH","OBJECT_NAME":"STARLINK-5009","FILE":"3655206","INCLINATION":"53.2162","BSTAR":"-0.00019770000000","REF_FRAME":"TEME","NORAD_CAT_ID":"53928","CLASSIFICATION_TYPE":"U","MEAN_MOTION_DOT":"-0.00028336","APOAPSIS":"352.178","OBJECT_TYPE":"PAYLOAD","COUNTRY_CODE":"US","DECAY_DATE":null,"TIME_SYSTEM":"UTC","MEAN_MOTION":"15.73240314","EPHEMERIS_TYPE":"0","TLE_LINE2":"2 53928  53.2162   0.8194 0003764  13.9328 208.2756 15.73240314  8453"},{"APOAPSIS":"352.766","MEAN_MOTION_DOT":"0.00073943","REF_FRAME":"TEME","CLASSIFICATION_TYPE":"U","NORAD_CAT_ID":"53929","BSTAR":"0.00052736000000","TLE_LINE2":"2 53929  53.2158 359.9907 0004294 330.0554 114.2773 15.73158916  8486","EPHEMERIS_TYPE":"0","MEAN_MOTION":"15.73158916","DECAY_DATE":null,"TIME_SYSTEM":"UTC","COUNTRY_CODE":"US","OBJECT_TYPE":"PAYLOAD","MEAN_ANOMALY":"114.2773","TLE_LINE1":"1 53929U 22119AV  22319.08334491  .00073943  00000-0  52736-3 0  9994","EPOCH":"2022-11-15T02:00:01.000224","MEAN_MOTION_DDOT":"0.0000000000000","RCS_SIZE":"LARGE","MEAN_ELEMENT_THEORY":"SGP4","LAUNCH_DATE":"2022-09-24","RA_OF_ASC_NODE":"359.9907","SITE":"AFETR","SEMIMAJOR_AXIS":"6728.012","OBJECT_ID":"2022-119AV","FILE":"3656110","INCLINATION":"53.2158","OBJECT_NAME":"STARLINK-5018","ELEMENT_SET_NO":"999","ECCENTRICITY":"0.00042940","CENTER_NAME":"EARTH","REV_AT_EPOCH":"848","ARG_OF_PERICENTER":"330.0554","GP_ID":"217790952","PERIOD":"91.536","PERIAPSIS":"346.988"},{"APOAPSIS":"352.570","MEAN_MOTION_DOT":"-0.00007043","REF_FRAME":"TEME","CLASSIFICATION_TYPE":"U","NORAD_CAT_ID":"53930","BSTAR":"-0.00004571200000","TLE_LINE2":"2 53930  53.2151   0.8186 0004237   2.3039 221.1088 15.73214406  8457","EPHEMERIS_TYPE":"0","MEAN_MOTION":"15.73214406","DECAY_DATE":null,"TIME_SYSTEM":"UTC","OBJECT_TYPE":"PAYLOAD","COUNTRY_CODE":"US","MEAN_ANOMALY":"221.1088","EPOCH":"2022-11-14T22:00:00.999936","TLE_LINE1":"1 53930U 22119AW  22318.91667824 -.00007043  00000-0 -45712-4 0  9993","MEAN_MOTION_DDOT":"0.0000000000000","MEAN_ELEMENT_THEORY":"SGP4","RCS_SIZE":"LARGE","LAUNCH_DATE":"2022-09-24","RA_OF_ASC_NODE":"0.8186","SITE":"AFETR","OBJECT_ID":"2022-119AW","SEMIMAJOR_AXIS":"6727.854","FILE":"3655208","INCLINATION":"53.2151","OBJECT_NAME":"STARLINK-5010","REV_AT_EPOCH":"845","ELEMENT_SET_NO":"999","ECCENTRICITY":"0.00042370","CENTER_NAME":"EARTH","ARG_OF_PERICENTER":"2.3039","GP_ID":"217746061","PERIOD":"91.532","PERIAPSIS":"346.869"},{"PERIAPSIS":"346.509","PERIOD":"91.528","GP_ID":"217746058","ARG_OF_PERICENTER":"3.3988","REV_AT_EPOCH":"845","ELEMENT_SET_NO":"999","CENTER_NAME":"EARTH","ECCENTRICITY":"0.00044260","OBJECT_NAME":"STARLINK-5015","FILE":"3655208","INCLINATION":"53.2163","SEMIMAJOR_AXIS":"6727.621","OBJECT_ID":"2022-119AX","SITE":"AFETR","RA_OF_ASC_NODE":"0.8023","LAUNCH_DATE":"2022-09-24","MEAN_ELEMENT_THEORY":"SGP4","RCS_SIZE":"LARGE","MEAN_MOTION_DDOT":"0.0000000000000","EPOCH":"2022-11-14T22:00:00.999936","TLE_LINE1":"1 53931U 22119AX  22318.91667824 -.00181475  00000-0 -13102-2 0  9992","MEAN_ANOMALY":"221.2005","OBJECT_TYPE":"PAYLOAD","COUNTRY_CODE":"US","DECAY_DATE":null,"TIME_SYSTEM":"UTC","MEAN_MOTION":"15.73296118","EPHEMERIS_TYPE":"0","TLE_LINE2":"2 53931  53.2163   0.8023 0004426   3.3988 221.2005 15.73296118  8455","BSTAR":"-0.00131020000000","REF_FRAME":"TEME","CLASSIFICATION_TYPE":"U","NORAD_CAT_ID":"53931","MEAN_MOTION_DOT":"-0.00181475","APOAPSIS":"352.464"}];
